start=new Date('2021-08-26T00:00:00.000Z').valueOf();
sats=[{"TLE_LINE1":"1 47170U 20088BA  21237.22144563  .00001518  00000-0  12072-3 0  9999","MEAN_ANOMALY":"313.8693","LAUNCH_DATE":"2020-11-25","CLASSIFICATION_TYPE":"U","EPOCH":"2021-08-25T05:18:52.902432","OBJECT_TYPE":"PAYLOAD","APOAPSIS":"548.200","MEAN_MOTION":"15.06412824","TIME_SYSTEM":"UTC","MEAN_ELEMENT_THEORY":"SGP4","SITE":"AFETR","TLE_LINE2":"2 47170  53.0555 182.2880 0001481  46.2419 313.8693 15.06412824 42027","ARG_OF_PERICENTER":"46.2419","RCS_SIZE":"LARGE","INCLINATION":"53.0555","ELEMENT_SET_NO":"999","GP_ID":"183419970","PERIAPSIS":"546.149","DECAY_DATE":null,"SEMIMAJOR_AXIS":"6925.309","EPHEMERIS_TYPE":"0","ECCENTRICITY":"0.00014810","MEAN_MOTION_DDOT":"0.0000000000000","BSTAR":"0.00012072000000","OBJECT_ID":"2020-088BA","REF_FRAME":"TEME","REV_AT_EPOCH":"4202","RA_OF_ASC_NODE":"182.2880","FILE":"3103042","PERIOD":"95.591","OBJECT_NAME":"STARLINK-1887","CENTER_NAME":"EARTH","COUNTRY_CODE":"US","MEAN_MOTION_DOT":"0.00001518","NORAD_CAT_ID":"47170"},{"OBJECT_ID":"2020-088BB","REV_AT_EPOCH":"4226","REF_FRAME":"TEME","RA_OF_ASC_NODE":"169.2158","PERIOD":"95.593","FILE":"3103208","CENTER_NAME":"EARTH","OBJECT_NAME":"STARLINK-1888","MEAN_MOTION_DOT":"-0.00001070","COUNTRY_CODE":"US","NORAD_CAT_ID":"47171","PERIAPSIS":"546.057","DECAY_DATE":null,"SEMIMAJOR_AXIS":"6925.374","EPHEMERIS_TYPE":"0","ECCENTRICITY":"0.00017070","MEAN_MOTION_DDOT":"0.0000000000000","BSTAR":"-0.00005296100000","OBJECT_TYPE":"PAYLOAD","APOAPSIS":"548.422","MEAN_MOTION":"15.06391587","TIME_SYSTEM":"UTC","MEAN_ELEMENT_THEORY":"SGP4","TLE_LINE2":"2 47171  53.0553 169.2158 0001707  67.8020 292.3150 15.06391587 42264","SITE":"AFETR","RCS_SIZE":"LARGE","ARG_OF_PERICENTER":"67.8020","INCLINATION":"53.0553","ELEMENT_SET_NO":"999","GP_ID":"183447181","TLE_LINE1":"1 47171U 20088BB  21237.90426759 -.00001070  00000-0 -52961-4 0  9992","LAUNCH_DATE":"2020-11-25","MEAN_ANOMALY":"292.3150","CLASSIFICATION_TYPE":"U","EPOCH":"2021-08-25T21:42:08.719776"},{"SEMIMAJOR_AXIS":"6916.638","DECAY_DATE":null,"EPHEMERIS_TYPE":"0","PERIAPSIS":"537.340","BSTAR":"0.01055400000000","MEAN_MOTION_DDOT":"0.0000000000000","ECCENTRICITY":"0.00016820","RA_OF_ASC_NODE":"184.1531","OBJECT_ID":"2020-088BC","REV_AT_EPOCH":"4205","REF_FRAME":"TEME","NORAD_CAT_ID":"47172","MEAN_MOTION_DOT":"0.00173793","COUNTRY_CODE":"US","CENTER_NAME":"EARTH","OBJECT_NAME":"STARLINK-1889","FILE":"3103208","PERIOD":"95.412","LAUNCH_DATE":"2020-11-25","MEAN_ANOMALY":"240.4470","TLE_LINE1":"1 47172U 20088BC  21237.90675945  .00173793  00000-0  10554-1 0  9995","EPOCH":"2021-08-25T21:45:44.016480","CLASSIFICATION_TYPE":"U","SITE":"AFETR","TLE_LINE2":"2 47172  53.0534 184.1531 0001682 119.6688 240.4470 15.09246408 42053","APOAPSIS":"539.667","MEAN_MOTION":"15.09246408","OBJECT_TYPE":"PAYLOAD","MEAN_ELEMENT_THEORY":"SGP4","TIME_SYSTEM":"UTC","GP_ID":"183445431","INCLINATION":"53.0534","ELEMENT_SET_NO":"999","RCS_SIZE":"LARGE","ARG_OF_PERICENTER":"119.6688"},{"TLE_LINE1":"1 47173U 20088BD  21237.56696747  .00000873  00000-0  77501-4 0  9997","LAUNCH_DATE":"2020-11-25","MEAN_ANOMALY":"303.7741","CLASSIFICATION_TYPE":"U","EPOCH":"2021-08-25T13:36:25.989408","OBJECT_TYPE":"PAYLOAD","MEAN_MOTION":"15.06403213","APOAPSIS":"548.385","TIME_SYSTEM":"UTC","MEAN_ELEMENT_THEORY":"SGP4","TLE_LINE2":"2 47173  53.0544 180.7337 0001706  56.3410 303.7741 15.06403213 42070","SITE":"AFETR","ARG_OF_PERICENTER":"56.3410","RCS_SIZE":"LARGE","ELEMENT_SET_NO":"999","INCLINATION":"53.0544","GP_ID":"183419219","PERIAPSIS":"546.022","DECAY_DATE":null,"SEMIMAJOR_AXIS":"6925.339","EPHEMERIS_TYPE":"0","ECCENTRICITY":"0.00017060","MEAN_MOTION_DDOT":"0.0000000000000","BSTAR":"0.00007750100000","OBJECT_ID":"2020-088BD","REV_AT_EPOCH":"4207","REF_FRAME":"TEME","RA_OF_ASC_NODE":"180.7337","PERIOD":"95.592","FILE":"3103042","CENTER_NAME":"EARTH","OBJECT_NAME":"STARLINK-1890","MEAN_MOTION_DOT":"0.00000873","COUNTRY_CODE":"US","NORAD_CAT_ID":"47173"},{"TLE_LINE1":"1 47174U 20088BE  21237.57530152  .00001027  00000-0  87851-4 0  9997","LAUNCH_DATE":"2020-11-25","MEAN_ANOMALY":"303.7344","CLASSIFICATION_TYPE":"U","EPOCH":"2021-08-25T13:48:26.051328","OBJECT_TYPE":"PAYLOAD","APOAPSIS":"548.289","MEAN_MOTION":"15.06394516","TIME_SYSTEM":"UTC","MEAN_ELEMENT_THEORY":"SGP4","SITE":"AFETR","TLE_LINE2":"2 47174  53.0545 180.6999 0001528  56.3790 303.7344 15.06394516 42364","ARG_OF_PERICENTER":"56.3790","RCS_SIZE":"LARGE","INCLINATION":"53.0545","ELEMENT_SET_NO":"999","GP_ID":"183423903","PERIAPSIS":"546.172","DECAY_DATE":null,"SEMIMAJOR_AXIS":"6925.365","EPHEMERIS_TYPE":"0","ECCENTRICITY":"0.00015280","MEAN_MOTION_DDOT":"0.0000000000000","BSTAR":"0.00008785100000","OBJECT_ID":"2020-088BE","REV_AT_EPOCH":"4236","REF_FRAME":"TEME","RA_OF_ASC_NODE":"180.6999","FILE":"3103148","PERIOD":"95.592","CENTER_NAME":"EARTH","OBJECT_NAME":"STARLINK-1891","COUNTRY_CODE":"US","MEAN_MOTION_DOT":"0.00001027","NORAD_CAT_ID":"47174"},{"ARG_OF_PERICENTER":"66.9180","RCS_SIZE":"LARGE","GP_ID":"183446681","ELEMENT_SET_NO":"999","INCLINATION":"53.0547","APOAPSIS":"548.347","MEAN_MOTION":"15.06388634","OBJECT_TYPE":"PAYLOAD","MEAN_ELEMENT_THEORY":"SGP4","TIME_SYSTEM":"UTC","TLE_LINE2":"2 47175  53.0547 159.1992 0001586  66.9180 293.1976 15.06388634 42407","SITE":"AFETR","CLASSIFICATION_TYPE":"U","EPOCH":"2021-08-25T21:43:29.071776","TLE_LINE1":"1 47175U 20088BF  21237.90519759  .00000952  00000-0  82854-4 0  9999","LAUNCH_DATE":"2020-11-25","MEAN_ANOMALY":"293.1976","CENTER_NAME":"EARTH","OBJECT_NAME":"STARLINK-1895","PERIOD":"95.593","FILE":"3103208","NORAD_CAT_ID":"47175","MEAN_MOTION_DOT":"0.00000952","COUNTRY_CODE":"US","OBJECT_ID":"2020-088BF","REV_AT_EPOCH":"4240","REF_FRAME":"TEME","RA_OF_ASC_NODE":"159.1992","MEAN_MOTION_DDOT":"0.0000000000000","ECCENTRICITY":"0.00015860","BSTAR":"0.00008285400000","PERIAPSIS":"546.150","SEMIMAJOR_AXIS":"6925.383","DECAY_DATE":null,"EPHEMERIS_TYPE":"0"},{"PERIOD":"95.593","FILE":"3103208","OBJECT_NAME":"STARLINK-1907","CENTER_NAME":"EARTH","MEAN_MOTION_DOT":"0.00001378","COUNTRY_CODE":"US","NORAD_CAT_ID":"47177","OBJECT_ID":"2020-088BH","REV_AT_EPOCH":"4227","REF_FRAME":"TEME","RA_OF_ASC_NODE":"168.9956","ECCENTRICITY":"0.00016190","MEAN_MOTION_DDOT":"0.0000000000000","BSTAR":"0.00011139000000","PERIAPSIS":"546.113","DECAY_DATE":null,"SEMIMAJOR_AXIS":"6925.369","EPHEMERIS_TYPE":"0","ARG_OF_PERICENTER":"80.2155","RCS_SIZE":"LARGE","ELEMENT_SET_NO":"999","INCLINATION":"53.0547","GP_ID":"183445932","OBJECT_TYPE":"PAYLOAD","MEAN_MOTION":"15.06393362","APOAPSIS":"548.355","TIME_SYSTEM":"UTC","MEAN_ELEMENT_THEORY":"SGP4","TLE_LINE2":"2 47177  53.0547 168.9956 0001619  80.2155 279.9016 15.06393362 42271","SITE":"AFETR","EPOCH":"2021-08-25T22:56:27.601728","CLASSIFICATION_TYPE":"U","TLE_LINE1":"1 47177U 20088BH  21237.95587502  .00001378  00000-0  11139-3 0  9997","MEAN_ANOMALY":"279.9016","LAUNCH_DATE":"2020-11-25"},{"MEAN_MOTION_DDOT":"0.0000000000000","ECCENTRICITY":"0.00014530","BSTAR":"0.00010305000000","PERIAPSIS":"546.167","EPHEMERIS_TYPE":"0","SEMIMAJOR_AXIS":"6925.309","DECAY_DATE":null,"CENTER_NAME":"EARTH","OBJECT_NAME":"STARLINK-1912","FILE":"3103153","PERIOD":"95.591","NORAD_CAT_ID":"47178","COUNTRY_CODE":"US","MEAN_MOTION_DOT":"0.00001254","REV_AT_EPOCH":"4206","REF_FRAME":"TEME","OBJECT_ID":"2020-088BJ","RA_OF_ASC_NODE":"180.8506","CLASSIFICATION_TYPE":"U","EPOCH":"2021-08-25T12:55:20.800416","TLE_LINE1":"1 47178U 20088BJ  21237.53843519  .00001254  00000-0  10305-3 0  9992","MEAN_ANOMALY":"303.3650","LAUNCH_DATE":"2020-11-25","RCS_SIZE":"LARGE","ARG_OF_PERICENTER":"56.7478","GP_ID":"183423491","ELEMENT_SET_NO":"999","INCLINATION":"53.0541","MEAN_ELEMENT_THEORY":"SGP4","TIME_SYSTEM":"UTC","MEAN_MOTION":"15.06413021","APOAPSIS":"548.180","OBJECT_TYPE":"PAYLOAD","SITE":"AFETR","TLE_LINE2":"2 47178  53.0541 180.8506 0001453  56.7478 303.3650 15.06413021 42060"},{"MEAN_MOTION_DOT":"0.00000918","COUNTRY_CODE":"US","NORAD_CAT_ID":"47179","FILE":"3103042","PERIOD":"95.592","OBJECT_NAME":"STARLINK-1913","CENTER_NAME":"EARTH","RA_OF_ASC_NODE":"192.1124","REV_AT_EPOCH":"4188","REF_FRAME":"TEME","OBJECT_ID":"2020-088BK","BSTAR":"0.00008052500000","ECCENTRICITY":"0.00013860","MEAN_MOTION_DDOT":"0.0000000000000","EPHEMERIS_TYPE":"0","DECAY_DATE":null,"SEMIMAJOR_AXIS":"6925.360","PERIAPSIS":"546.265","INCLINATION":"53.0533","ELEMENT_SET_NO":"999","GP_ID":"183419971","RCS_SIZE":"LARGE","ARG_OF_PERICENTER":"63.0923","SITE":"AFETR","TLE_LINE2":"2 47179  53.0533 192.1124 0001386  63.0923 297.0207 15.06396202 41882","TIME_SYSTEM":"UTC","MEAN_ELEMENT_THEORY":"SGP4","OBJECT_TYPE":"PAYLOAD","MEAN_MOTION":"15.06396202","APOAPSIS":"548.185","EPOCH":"2021-08-25T06:15:56.439360","CLASSIFICATION_TYPE":"U","LAUNCH_DATE":"2020-11-25","MEAN_ANOMALY":"297.0207","TLE_LINE1":"1 47179U 20088BK  21237.26106990  .00000918  00000-0  80525-4 0  9996"},{"RA_OF_ASC_NODE":"187.1505","REV_AT_EPOCH":"4223","REF_FRAME":"TEME","OBJECT_ID":"2020-088BL","NORAD_CAT_ID":"47180","COUNTRY_CODE":"US","MEAN_MOTION_DOT":"0.00004812","CENTER_NAME":"EARTH","OBJECT_NAME":"STARLINK-1914","PERIOD":"93.374","FILE":"3103153","EPHEMERIS_TYPE":"0","SEMIMAJOR_AXIS":"6817.803","DECAY_DATE":null,"PERIAPSIS":"438.919","BSTAR":"0.00011986000000","MEAN_MOTION_DDOT":"0.0000000000000","ECCENTRICITY":"0.00010990","TLE_LINE2":"2 47180  53.0509 187.1505 0001099  96.5458 263.5671 15.42183593 42239","SITE":"AFETR","MEAN_ELEMENT_THEORY":"SGP4","TIME_SYSTEM":"UTC","MEAN_MOTION":"15.42183593","APOAPSIS":"440.417","OBJECT_TYPE":"PAYLOAD","GP_ID":"183423483","ELEMENT_SET_NO":"999","INCLINATION":"53.0509","ARG_OF_PERICENTER":"96.5458","RCS_SIZE":"LARGE","MEAN_ANOMALY":"263.5671","LAUNCH_DATE":"2020-11-25","TLE_LINE1":"1 47180U 20088BL  21237.59463955  .00004812  00000-0  11986-3 0  9992","CLASSIFICATION_TYPE":"U","EPOCH":"2021-08-25T14:16:16.857120"}];
